NORAD_CAT_ID,OBJECT_NAME,OBJECT_TYPE,EPOCH,MEAN_MOTION,ECCENTRICITY,INCLINATION,RA_OF_ASC_NODE,ARG_OF_PERICENTER,MEAN_ANOMALY,BSTAR,MEAN_MOTION_DOT,MEAN_MOTION_DDOT,TLE_LINE0,TLE_LINE1,TLE_LINE2,SEMIMAJOR_AXIS,PERIOD,APOGEE,PERIGEE,DECAYED
53416.0,STARLINK-4480,PAYLOAD,2022-09-06 06:00:00,15.73136251,9.02e-05,53.2182,114.1478,71.3784,259.9368,-6.285399999999999e-05,-9.405e-05,0.0,0 STARLINK-4480,1 53416U 22097AE  22249.25001157 -.00009405  00000-0 -62854-4 0  9998,2 53416  53.2182 114.1478 0000902  71.3784 259.9368 15.73136251  4683,6728.0769999999975,91.537,350.5490000000001,349.335,0.0
53416.0,STARLINK-4480,PAYLOAD,2022-09-06 14:00:01,15.73114156,0.0001014999999999,53.2185,112.4971,87.7011,332.4681,5.3345e-05,6.846e-05,0.0,0 STARLINK-4480,1 53416U 22097AE  22249.58334491  .00006846  00000-0  53345-4 0  9993,2 53416  53.2185 112.4971 0001015  87.7011 332.4681 15.73114156  1306,6728.14,91.538,350.68800000000016,349.32199999999995,0.0
53416.0,STARLINK-4480,PAYLOAD,2022-09-06 20:00:01,15.73137234,0.00011,53.2186,111.2618,78.1527,318.6562,0.00015677,0.00021379,0.0,0 STARLINK-4480,1 53416U 22097AE  22249.83334491  .00021379  00000-0  15677-3 0  9994,2 53416  53.2186 111.2618 0001100  78.1527 318.6562 15.73137234  4773,6728.074000000001,91.537,350.67900000000014,349.199,0.0
53416.0,STARLINK-4480,PAYLOAD,2022-09-06 22:00:00,15.73127998,0.0001124,53.2185,110.8499,73.5889,75.4316,0.00031436,0.00043591,0.0,0 STARLINK-4480,1 53416U 22097AE  22249.91667824  .00043591  00000-0  31436-3 0  9993,2 53416  53.2185 110.8499 0001124  73.5889  75.4316 15.73127998  1307,6728.1,91.537,350.722,349.209,0.0
53416.0,STARLINK-4480,PAYLOAD,2022-09-07 14:00:01,15.73185052,0.0001051,53.2185,107.5495,83.9695,242.8091,0.00053649,0.00075301,0.0,0 STARLINK-4480,1 53416U 22097AE  22250.58334491  .00075301  00000-0  53649-3 0  9993,2 53416  53.2185 107.5495 0001051  83.9695 242.8091 15.73185052  4897,6727.938,91.534,350.51,349.096,0.0
53416.0,STARLINK-4480,PAYLOAD,2022-09-07 22:00:00,15.7325587,0.0001187,53.218,105.9017,71.0481,344.6695,-0.00056991,-0.00080035,0.0,0 STARLINK-4480,1 53416U 22097AE  22250.91667824 -.00080035  00000-0 -56991-3 0  9994,2 53416  53.2180 105.9017 0001187  71.0481 344.6695 15.73255870  1305,6727.736,91.53,350.399,348.802,0.0
53416.0,STARLINK-4480,PAYLOAD,2022-09-08 06:00:00,15.73250624,0.0001119,53.2177,104.2518,75.4948,69.21,-0.00016938,-0.00024373,0.0,0 STARLINK-4480,1 53416U 22097AE  22251.25001157 -.00024373  00000-0 -16938-3 0  9993,2 53416  53.2177 104.2518 0001119  75.4948  69.2100 15.73250624  5004,6727.751,91.53,350.369,348.86300000000006,0.0
53416.0,STARLINK-4480,PAYLOAD,2022-09-08 14:00:01,15.73189967,0.0001027,53.218,102.601,84.596,149.0687,0.00027734,0.00038464,0.0,0 STARLINK-4480,1 53416U 22097AE  22251.58334491  .00038464  00000-0  27734-3 0  9999,2 53416  53.2180 102.6010 0001027  84.5960 149.0687 15.73189967  1307,6727.924,91.534,350.48,349.098,0.0
53416.0,STARLINK-4480,PAYLOAD,2022-09-08 22:00:00,15.73249402,0.0001147999999999,53.218,100.9536,69.2505,253.3673,-0.00039114,-0.00055269,0.0,0 STARLINK-4480,1 53416U 22097AE  22251.91667824 -.00055269  00000-0 -39114-3 0  9994,2 53416  53.2180 100.9536 0001148  69.2505 253.3673 15.73249402  1305,6727.754,91.53,350.392,348.847,0.0
53416.0,STARLINK-4480,PAYLOAD,2022-09-09 14:00:01,15.73175627,0.0001358,53.2178,97.6527,82.9285,57.5788,0.00045726,0.00063976,0.0,0 STARLINK-4480,1 53416U 22097AE  22252.58334491  .00063976  00000-0  45726-3 0  9997,2 53416  53.2178  97.6527 0001358  82.9285  57.5788 15.73175627  1302,6727.965,91.535,350.74300000000005,348.916,0.0
53416.0,STARLINK-4480,PAYLOAD,2022-09-09 22:00:00,15.73229517,0.0001337,53.2173,96.0037,68.8569,160.5756,-0.00038935,-0.00054976,0.0,0 STARLINK-4480,1 53416U 22097AE  22252.91667824 -.00054976  00000-0 -38935-3 0  9999,2 53416  53.2173  96.0037 0001337  68.8569 160.5756 15.73229517  1309,6727.811,91.531,350.576,348.777,0.0
53416.0,STARLINK-4480,PAYLOAD,2022-09-10 06:00:02,15.73228005,0.0001174,53.2172,94.3527,73.3613,245.1079,-0.00064479,-0.00090253,0.0,0 STARLINK-4480,1 53416U 22097AE  22253.25002315 -.00090253  00000-0 -64479-3 0  9995,2 53416  53.2172  94.3527 0001174  73.3613 245.1079 15.73228005  5317,6727.815,91.532,350.47,348.89,0.0
53416.0,STARLINK-4480,PAYLOAD,2022-09-10 14:00:01,15.73178046,0.000124,53.2172,92.7039,80.4618,326.865,0.00046157,0.00064596,0.0,0 STARLINK-4480,1 53416U 22097AE  22253.58334491  .00064596  00000-0  46157-3 0  9996,2 53416  53.2172  92.7039 0001240  80.4618 326.8650 15.73178046  5361,6727.958000000001,91.534,350.657,348.98800000000006,0.0
53416.0,STARLINK-4480,PAYLOAD,2022-09-10 20:00:01,15.73242219,0.0001220999999999,53.2173,91.4671,68.4207,315.5931,-0.00047178,-0.00066429,0.0,0 STARLINK-4480,1 53416U 22097AE  22253.83334491 -.00066429  00000-0 -47178-3 0  9997,2 53416  53.2173  91.4671 0001221  68.4207 315.5931 15.73242219  5405,6727.775,91.531,350.461,348.8180000000001,0.0
53416.0,STARLINK-4480,PAYLOAD,2022-09-10 22:00:00,15.73210838,0.0001169,53.2173,91.0564,63.7828,72.4654,-0.00010626,-0.00015512,0.0,0 STARLINK-4480,1 53416U 22097AE  22253.91667824 -.00015512  00000-0 -10626-3 0  9990,2 53416  53.2173  91.0564 0001169  63.7828  72.4654 15.73210838  1308,6727.864000000001,91.533,350.516,348.9430000000001,0.0
53416.0,STARLINK-4480,PAYLOAD,2022-09-11 06:00:00,15.73210297,9.79e-05,53.2172,89.4053,63.5725,161.6113,0.0001909,0.00026267,0.0,0 STARLINK-4480,1 53416U 22097AE  22254.25001157  .00026267  00000-0  19090-3 0  9990,2 53416  53.2172  89.4053 0000979  63.5725 161.6113 15.73210297  5475,6727.866,91.533,350.389,349.07199999999995,0.0
53416.0,STARLINK-4480,PAYLOAD,2022-09-11 14:00:01,15.73277279,9.9e-05,53.2172,87.7553,70.1042,244.0192,-0.00024091,-0.00034403,0.0,0 STARLINK-4480,1 53416U 22097AE  22254.58334491 -.00034403  00000-0 -24091-3 0  9996,2 53416  53.2172  87.7553 0000990  70.1042 244.0192 15.73277279  1304,6727.675,91.529,350.206,348.874,0.0
53416.0,STARLINK-4480,PAYLOAD,2022-09-11 22:00:00,15.73218906,0.0001154,53.2169,86.1077,58.8524,344.2805,-0.00040936,-0.00057723,0.0,0 STARLINK-4480,1 53416U 22097AE  22254.91667824 -.00057723  00000-0 -40936-3 0  9998,2 53416  53.2169  86.1077 0001154  58.8524 344.2805 15.73218906  5574,6727.840999999999,91.532,350.483,348.93,0.0
53416.0,STARLINK-4480,PAYLOAD,2022-09-12 06:00:00,15.73206236,0.0001004999999999,53.2167,84.4564,60.5349,71.5517,-0.000364,-0.00051405,0.0,0 STARLINK-4480,1 53416U 22097AE  22255.25001157 -.00051405  00000-0 -36400-3 0  9999,2 53416  53.2167  84.4564 0001005  60.5349  71.5517 15.73206236  5634,6727.877,91.533,350.4190000000001,349.066,0.0
53416.0,STARLINK-4480,PAYLOAD,2022-09-12 12:00:00,15.73154744,0.0001087,53.2169,83.2184,71.3923,37.3847,0.00072907,0.00102759,0.0,0 STARLINK-4480,1 53416U 22097AE  22255.50001157  .00102759  00000-0  72907-3 0  9996,2 53416  53.2169  83.2184 0001087  71.3923  37.3847 15.73154744  5675,6728.024,91.536,350.621,349.158,0.0
53416.0,STARLINK-4480,PAYLOAD,2022-09-12 14:00:01,15.73185897,0.0001097999999999,53.217,82.8065,69.7898,151.2041,0.00049715,0.0006969,0.0,0 STARLINK-4480,1 53416U 22097AE  22255.58334491  .00069690  00000-0  49715-3 0  9991,2 53416  53.2170  82.8065 0001098  69.7898 151.2041 15.73185897  1305,6727.935,91.534,350.539,349.06199999999984,0.0
53416.0,STARLINK-4480,PAYLOAD,2022-09-12 22:00:00,15.73222979,0.0001274999999999,53.2172,81.15899999999998,54.5169,255.3914,0.00017023,0.0002335999999999,0.0,0 STARLINK-4480,1 53416U 22097AE  22255.91667824  .00023360  00000-0  17023-3 0  9998,2 53416  53.2172  81.1590 0001275  54.5169 255.3914 15.73222979  5731,6727.83,91.532,350.552,348.837,0.0
53416.0,STARLINK-4480,PAYLOAD,2022-09-13 14:00:01,15.73211042,0.0001240999999999,53.2173,77.8582,62.8421,64.9756,-0.00034615,-0.0004894,0.0,0 STARLINK-4480,1 53416U 22097AE  22256.58334491 -.00048940  00000-0 -34615-3 0  9992,2 53416  53.2173  77.8582 0001241  62.8421  64.9756 15.73211042  1307,6727.864000000001,91.533,350.564,348.894,0.0
53416.0,STARLINK-4480,PAYLOAD,2022-09-13 16:00:00,15.7318693,0.0001325,53.2175,77.4464,58.7912,181.266,-9.3309e-05,-0.00013686,0.0,0 STARLINK-4480,1 53416U 22097AE  22256.66667824 -.00013686  00000-0 -93309-4 0  9995,2 53416  53.2175  77.4464 0001325  58.7912 181.2660 15.73186930  5854,6727.932,91.534,350.689,348.906,0.0
53416.0,STARLINK-4480,PAYLOAD,2022-09-13 22:00:00,15.73138292,0.0001471,53.217,76.2095,53.9005,162.8217,0.00075934,0.00107032,0.0,0 STARLINK-4480,1 53416U 22097AE  22256.91667824  .00107032  00000-0  75934-3 0  9993,2 53416  53.2170  76.2095 0001471  53.9005 162.8217 15.73138292  1305,6728.071,91.537,350.926,348.946,0.0
53416.0,STARLINK-4480,PAYLOAD,2022-09-14 06:00:00,15.73271484,0.0001186,53.2168,74.5543,55.715,249.9077,-0.00096336,-0.00134095,0.0,0 STARLINK-4480,1 53416U 22097AE  22257.25001157 -.00134095  00000-0 -96336-3 0  9992,2 53416  53.2168  74.5543 0001186  55.7150 249.9077 15.73271484  5941,6727.691,91.529,350.35400000000016,348.7580000000001,0.0
53416.0,STARLINK-4480,PAYLOAD,2022-09-14 14:00:01,15.73158153,0.0001149999999999,53.2172,72.9005,66.9948,327.6173,-0.0044976999999999,-0.00588475,0.0,0 STARLINK-4480,1 53416U 22097AE  22257.58334491 -.00588475  00000-0 -44977-2 0  9996,2 53416  53.2172  72.9005 0001150  66.9948 327.6173 15.73158153  1305,6728.014,91.536,350.653,349.106,0.0
53416.0,STARLINK-4480,PAYLOAD,2022-09-14 20:00:01,15.73000218,0.0001159,53.2175,71.6633,60.799,310.3017,-0.0084938,-0.01062565,0.0,0 STARLINK-4480,1 53416U 22097AE  22257.83334491 -.01062565  00000-0 -84938-2 0  9993,2 53416  53.2175  71.6633 0001159  60.7990 310.3017 15.73000218  6038,6728.465,91.545,351.11,349.55,0.0
53416.0,STARLINK-4480,PAYLOAD,2022-09-14 22:00:00,15.72772208,0.0001475,53.2173,71.2531,57.1319,66.1216,-0.0080641,-0.0100509,0.0,0 STARLINK-4480,1 53416U 22097AE  22257.91667824 -.01005090  00000-0 -80641-2 0  9998,2 53416  53.2173  71.2531 0001475  57.1319  66.1216 15.72772208  1301,6729.115,91.558,351.973,349.98800000000006,0.0
